     2.100          NAVIGATION                              RINEX VERSION / TYPE
fic2rin                                 05/14/2010 01:04:23 PGM / RUN BY / DATE
                                                            END OF HEADER
10 10  5 13  1 59 44.0 -.424324534833D-04 -.909494701773D-12  .000000000000D+00
     .130000000000D+02  .138531250000D+03  .450733060555D-08  .259790164956D+01
     .709854066372D-05  .914951937739D-02  .494346022606D-05  .515350790024D+04
     .352784000000D+06  .260770320892D-07  .688132638984D+00 -.154599547386D-06
     .953804630363D+00  .282093750000D+03  .668520511980D+00 -.816712590786D-08
     .386087510666D-09  .100000000000D+01  .158300000000D+04  .000000000000D+00
     .240000000000D+01  .000000000000D+00 -.279396772385D-08  .130000000000D+02
     .345606000000D+06  .400000000000D+01
 1 10  5 13  2  0  0.0 -.118786469102D-03 -.409272615798D-11  .000000000000D+00
     .101000000000D+03  .176562500000D+02  .583131432622D-08  .292779110424D+01
     .862404704094D-06  .466340559069D-02  .924989581108D-05  .515479430389D+04
     .352800000000D+06 -.167638063431D-07 -.248073562919D+01 -.109896063805D-06
     .964626272808D+00  .203187500000D+03  .861305015097D+00 -.778175271266D-08
     .580381318069D-09  .100000000000D+01  .158300000000D+04  .000000000000D+00
     .240000000000D+01  .630000000000D+02 -.190921127796D-07  .101000000000D+03
     .345606000000D+06  .400000000000D+01
 2 10  5 13  2  0  0.0  .255127437413D-03  .341060513165D-11  .000000000000D+00
     .350000000000D+02  .373125000000D+02  .471126767178D-08  .958869665296D+00
     .200793147087D-05  .955208181404D-02  .110436230898D-04  .515358469391D+04
     .352800000000D+06  .158324837685D-06 -.396858940459D+00  .180676579475D-06
     .940220523136D+00  .154468750000D+03  .305872387569D+01 -.800390482333D-08
    -.616097091488D-09  .100000000000D+01  .158300000000D+04  .000000000000D+00
     .240000000000D+01  .000000000000D+00 -.172294676304D-07  .350000000000D+02
     .345606000000D+06  .400000000000D+01
 3 10  5 13  2  0  0.0  .554207712412D-03  .500222085975D-11  .000000000000D+00
     .760000000000D+02 -.953125000000D+01  .597024868482D-08  .888952523938D+00
    -.253319740295D-06  .130404785741D-01  .465288758278D-05  .515369787598D+04
     .352800000000D+06 -.117346644402D-06 -.154932222253D+01  .122934579849D-06
     .926673383849D+00  .275156250000D+03  .992291564881D+00 -.893680082505D-08
    -.310012913282D-09  .100000000000D+01  .158300000000D+04  .000000000000D+00
     .340000000000D+01  .000000000000D+00 -.465661287308D-08  .760000000000D+02
     .345606000000D+06  .400000000000D+01
 4 10  5 13  2  0  0.0  .806320458651D-04  .829913915368D-11  .000000000000D+00
     .940000000000D+02  .372500000000D+02  .463019286612D-08 -.223247621774D+01
     .183656811714D-05  .907681521494D-02  .113155692816D-04  .515369131088D+04
     .352800000000D+06  .670552253723D-07 -.378986063594D+00 -.102445483208D-06
     .939375111555D+00  .150406250000D+03  .606870952668D+00 -.785139847083D-08
    -.424660545959D-09  .100000000000D+01  .158300000000D+04  .000000000000D+00
     .240000000000D+01  .000000000000D+00 -.605359673500D-08  .940000000000D+02
     .345606000000D+06  .400000000000D+01
 5 10  5 13  2  0  0.0 -.293366611004D-05 -.102318153949D-11  .000000000000D+00
     .650000000000D+02  .139343750000D+03  .449483008486D-08  .252833625222D+01
     .721774995327D-05  .182799529284D-02  .540539622307D-05  .515370627403D+04
     .352800000000D+06  .335276126862D-07  .662290523196D+00 -.298023223877D-07
     .958796528170D+00  .275125000000D+03  .316872738770D+00 -.823391440416D-08
     .338228374284D-09  .100000000000D+01  .158300000000D+04  .000000000000D+00
     .240000000000D+01  .000000000000D+00 -.884756445885D-08  .650000000000D+02
     .345606000000D+06  .400000000000D+01
 6 10  5 13  2  0  0.0  .641471240669D-03 -.110276232590D-10  .000000000000D+00
     .720000000000D+02 -.164687500000D+02  .566880755716D-08  .311654269478D+01
    -.698491930962D-06  .628231395967D-02  .436790287495D-05  .515365338516D+04
     .352800000000D+06  .763684511185D-07 -.147878810425D+01  .162050127983D-06
     .934014962158D+00  .279906250000D+03 -.107624672622D+01 -.850606859761D-08
    -.248938940735D-09  .100000000000D+01  .158300000000D+04  .000000000000D+00
     .240000000000D+01  .000000000000D+00 -.512227416039D-08  .720000000000D+02
     .345606000000D+06  .400000000000D+01
 7 10  5 13  2  0  0.0 -.407919287682D-06 -.341060513165D-12  .000000000000D+00
     .760000000000D+02 -.100531250000D+03  .409231331842D-08 -.621064087321D+00
    -.530295073986D-05  .345764087979D-02  .105742365122D-04  .515371851158D+04
     .352800000000D+06  .428408384323D-07  .276362766878D+01 -.204890966415D-07
     .971740926190D+00  .179687500000D+03  .303655163912D+01 -.776639493009D-08
     .632169189527D-10  .100000000000D+01  .158300000000D+04  .000000000000D+00
     .240000000000D+01  .000000000000D+00 -.102445483208D-07  .760000000000D+02
     .345606000000D+06  .400000000000D+01
 8 10  5 13  2  0  0.0  .535789877176D-05  .113686837722D-12  .000000000000D+00
     .112000000000D+03 -.101000000000D+03  .356050545220D-08 -.125782290985D+01
    -.554509460926D-05  .110476872651D-01  .112168490887D-04  .515369801903D+04
     .352800000000D+06  .186264514923D-07  .283120608543D+01 -.143423676491D-06
     .993146653665D+00  .177718750000D+03  .309828248694D+01 -.749245494797D-08
     .232866842696D-09  .100000000000D+01  .158300000000D+04  .000000000000D+00
     .485000000000D+01  .000000000000D+00 -.372529029846D-08  .112000000000D+03
     .345606000000D+06  .400000000000D+01
 9 10  5 13  2  0  0.0  .621518120170D-05  .216004991671D-11  .000000000000D+00
     .130000000000D+02 -.120843750000D+03  .395123601341D-08 -.136242717159D+01
    -.590831041336D-05  .169895801228D-01  .108554959297D-04  .515371868134D+04
     .352800000000D+06 -.782310962677D-07  .273232775674D+01  .413507223129D-06
     .980830377076D+00  .181437500000D+03  .151312148665D+01 -.774960851659D-08
    -.185722021782D-10  .100000000000D+01  .158300000000D+04  .000000000000D+00
     .340000000000D+01  .000000000000D+00 -.558793544769D-08  .130000000000D+02
     .345606000000D+06  .400000000000D+01
11 10  5 13  2  0  0.0 -.622030347586D-04 -.238742359215D-11  .000000000000D+00
     .970000000000D+02 -.609375000000D+01  .607382442774D-08 -.748278537947D+00
    -.346451997757D-06  .106122606667D-01  .943057239056D-05  .515374366760D+04
     .352800000000D+06  .912696123123D-07 -.614620192118D+00  .268220901489D-06
     .888536749454D+00  .157968750000D+03  .804652595228D+00 -.881072414488D-08
    -.698243370353D-09  .100000000000D+01  .158300000000D+04  .000000000000D+00
     .340000000000D+01  .000000000000D+00 -.116415321827D-07  .970000000000D+02
     .345606000000D+06  .400000000000D+01
12 10  5 13  2  0  0.0 -.116053037345D-03  .420641299570D-11  .000000000000D+00
     .114000000000D+03  .148125000000D+02  .456483300076D-08 -.639664787875D+00
     .821426510811D-06  .355340179522D-02  .884383916855D-05  .515369056129D+04
     .352800000000D+06  .391155481339D-07 -.246644452291D+01 -.279396772385D-07
     .970695074352D+00  .217218750000D+03 -.455508460019D+00 -.789354308347D-08
     .658598861858D-09  .100000000000D+01  .158300000000D+04  .000000000000D+00
     .240000000000D+01  .000000000000D+00 -.116415321827D-07  .114000000000D+03
     .345606000000D+06  .400000000000D+01
13 10  5 13  2  0  0.0  .304500106722D-03 -.454747350886D-12  .000000000000D+00
     .570000000000D+02 -.696875000000D+02  .393480675764D-08  .186979643740D+01
    -.365823507309D-05  .447177060414D-02  .163726508617D-05  .515376081848D+04
     .352800000000D+06  .614672899246D-07  .178182691035D+01 -.596046447754D-07
     .992675188815D+00  .364187500000D+03  .170578855548D+01 -.801961976364D-08
    -.107504477993D-09  .100000000000D+01  .158300000000D+04  .000000000000D+00
     .240000000000D+01  .000000000000D+00 -.107102096081D-07  .570000000000D+02
     .345606000000D+06  .400000000000D+01
14 10  5 13  2  0  0.0  .448911450803D-04  .432009983342D-11  .000000000000D+00
     .100000000000D+03 -.560937500000D+02  .418338854064D-08  .170085134155D+01
    -.284798443317D-05  .502080691513D-02  .105798244476D-05  .515373703957D+04
     .352800000000D+06 -.949949026108D-07  .176010847535D+01 -.353902578354D-07
     .985944282251D+00  .369156250000D+03 -.213005725865D+01 -.823641450830D-08
    -.550022910662D-10  .100000000000D+01  .158300000000D+04  .000000000000D+00
     .240000000000D+01  .000000000000D+00 -.884756445885D-08  .100000000000D+03
     .345606000000D+06  .400000000000D+01
15 10  5 13  2  0  0.0 -.273807905614D-03  .568434188608D-11  .000000000000D+00
     .950000000000D+02 -.549687500000D+02  .497163566001D-08  .158720901392D+01
    -.289455056190D-05  .247339787893D-02  .378116965294D-06  .515375616264D+04
     .352800000000D+06 -.372529029846D-08  .169646905195D+01  .409781932831D-07
     .953561161296D+00  .368250000000D+03 -.170785885666D+00 -.862535928084D-08
    -.110004582132D-09  .100000000000D+01  .158300000000D+04  .000000000000D+00
     .340000000000D+01  .000000000000D+00 -.977888703346D-08  .950000000000D+02
     .345606000000D+06  .400000000000D+01
16 10  5 13  2  0  0.0 -.708876177669D-04 -.386535248253D-11  .000000000000D+00
     .180000000000D+02  .230312500000D+02  .443161316591D-08 -.295108988136D+01
     .124983489513D-05  .594411988277D-02  .887736678123D-05  .515376050377D+04
     .352800000000D+06 -.109896063805D-06 -.244904409691D+01 -.130385160446D-07
     .971910422805D+00  .215406250000D+03 -.229804631120D+00 -.771710716277D-08
     .604668043994D-09  .100000000000D+01  .158300000000D+04  .000000000000D+00
     .240000000000D+01  .000000000000D+00 -.977888703346D-08  .180000000000D+02
     .345606000000D+06  .400000000000D+01
